{"type": "FeatureCollection", "name": "locator_countries_110m", "crs": {"type": "name", "properties": {"name": "urn:ogc:def:crs:OGC:1.3:CRS84"}}, "features": [{"type": "Feature", "properties": {"name": "Brazil"}, "geometry": {"type": "Polygon", "coordinates": [[[-53.373661668498244, -33.768377780900764], [-53.6505439927181, -33.20200408298183], [-53.209588995971544, -32.727666110974724], [-53.78795162618219, -32.047242526987624], [-54.57245154480512, -31.494511407193748], [-55.601510179249345, -30.853878676071393], [-55.97324459494094, -30.883075860316303], [-56.976025763564735, -30.109686374636127], [-57.62513342958296, -30.21629485445426], [-56.29089962423908, -28.852760512000895], [-55.16228634298457, -27.881915378533463], [-54.490725267135524, -27.47475676850579], [-53.64873531758789, -26.92347258881609], [-53.628348965048744, -26.124865004177472], [-54.13004960795439, -25.547639255477254], [-54.625290696823576, -25.739255466415514], [-54.42894609233059, -25.162184747012166], [-54.29347632507745, -24.570799655863965], [-54.29295956075452, -24.02101409271073], [-54.65283423523513, -23.83957813893396], [-55.02790178080955, -24.00127369557523], [-55.40074723979542, -23.956935316668805], [-55.517639329639636, -23.571997572526637], [-55.610682745981144, -22.655619398694846], [-55.79795813660691, -22.356929620047822], [-56.47331743022939, -22.086300144135283], [-56.8815095689029, -22.28215382252148], [-57.937155727761294, -22.090175876557172], [-57.8706739976178, -20.73268767668195], [-58.166392381408045, -20.176700941653678], [-57.85380164247451, -19.96999521248619], [-57.949997321185826, -19.40000416430682], [-57.67600887717431, -18.96183969490403], [-57.49837114117099, -18.174187513911292], [-57.734558274961, -17.55246835700777], [-58.28080400250225, -17.271710300366017], [-58.38805843772404, -16.877109063385276], [-58.24121985536668, -16.299573256091293], [-60.158389655179036, -16.258283786690086], [-60.54296566429515, -15.093910414289596], [-60.251148851142936, -15.07721892665932], [-60.26432634137737, -14.645979099183641], [-60.45919816755003, -14.354007256734555], [-60.503304002511136, -13.775954685117659], [-61.08412126325565, -13.479383640194598], [-61.71320431176078, -13.489202162330052], [-62.127080857986385, -13.198780612849724], [-62.803060268796386, -13.000653171442686], [-63.19649878605057, -12.627032565972435], [-64.3163529120316, -12.461978041232193], [-65.40228146021303, -11.566270440317155], [-65.32189876978302, -10.895872084194679], [-65.44483700220539, -10.511451104375432], [-65.33843522811642, -9.761987806846392], [-66.6469083319628, -9.931331475466862], [-67.17380123561074, -10.306812432499612], [-68.04819230820539, -10.712059014532485], [-68.27125362819326, -11.01452117273682], [-68.78615759954948, -11.03638030359628], [-69.52967810736496, -10.951734307502194], [-70.0937522040469, -11.123971856331012], [-70.54868567572841, -11.009146823778465], [-70.48189388699117, -9.490118096558845], [-71.30241227892154, -10.079436130415374], [-72.18489071316985, -10.053597914269432], [-72.56303300646564, -9.520193780152717], [-73.22671342639016, -9.462212823121234], [-73.01538265653255, -9.032833347208062], [-73.57105933296707, -8.424446709835834], [-73.98723548042966, -7.523829847853065], [-73.7234014553635, -7.340998630404414], [-73.72448666044164, -6.91859547285064], [-73.1200274319236, -6.629930922068239], [-73.21971126981461, -6.089188734566078], [-72.9645072089412, -5.741251315944893], [-72.89192765978726, -5.274561455916981], [-71.74840572781655, -4.593982842633011], [-70.92884334988358, -4.401591485210368], [-70.7947688463023, -4.251264743673303], [-69.89363521999663, -4.298186944194327], [-69.44410193548961, -1.556287123219818], [-69.42048580593223, -1.122618503426409], [-69.5770653957766, -0.549991957200163], [-70.02065589057005, -0.185156345219539], [-70.01556576198931, 0.541414292804205], [-69.45239600287246, 0.706158758950693], [-69.25243404811906, 0.602650865070075], [-69.21863766140018, 0.985676581217433], [-69.80459672715773, 1.089081122233466], [-69.81697323269162, 1.714805202639624], [-67.86856502955884, 1.692455145673392], [-67.5378100246747, 2.03716278727633], [-67.2599975246736, 1.719998684084956], [-67.0650481838525, 1.130112209473225], [-66.87632585312258, 1.253360500489336], [-66.32576514348496, 0.724452215982012], [-65.54826738143757, 0.78925446207603], [-65.35471330428837, 1.0952822941085], [-64.61101192895987, 1.328730576987042], [-64.19930579289051, 1.49285492594602], [-64.08308549666609, 1.91636912679408], [-63.368788011311665, 2.200899562993129], [-63.42286739770512, 2.411067613124175], [-64.2699991522658, 2.497005520025567], [-64.40882788761792, 3.126786200366624], [-64.3684944322141, 3.797210394705246], [-64.81606401229402, 4.056445217297423], [-64.62865943058755, 4.14848094320925], [-63.88834286157416, 4.020530096854571], [-63.093197597899106, 3.770571193858785], [-62.804533047116706, 4.006965033377952], [-62.08542965355913, 4.162123521334308], [-60.96689327660154, 4.536467596856639], [-60.601179165271944, 4.91809804933213], [-60.73357418480372, 5.200277207861901], [-60.21368343773133, 5.244486395687602], [-59.980958624904886, 5.014061184098139], [-60.11100236676738, 4.574966538914083], [-59.767405768458715, 4.423502915866607], [-59.53803992373123, 3.958802598481938], [-59.815413174057866, 3.606498521332085], [-59.97452490908456, 2.755232652188056], [-59.71854570172675, 2.24963043864436], [-59.64604366722126, 1.786893825686789], [-59.03086157900265, 1.317697658692722], [-58.540012986878295, 1.268088283692521], [-58.429477098205965, 1.463941962078721], [-58.11344987652502, 1.507195135907025], [-57.66097103537737, 1.682584947105639], [-57.335822923396904, 1.948537705895759], [-56.78270423036083, 1.863710842288654], [-56.539385748914555, 1.899522609866921], [-55.995698004771754, 1.817667141116601], [-55.905600145070885, 2.02199575439866], [-56.0733418442903, 2.220794989425499], [-55.973322109589375, 2.510363877773017], [-55.569755011606, 2.421506252447131], [-55.09758744975514, 2.523748073736613], [-54.524754197799716, 2.311848863123785], [-54.08806250671725, 2.105556545414629], [-53.77852067728892, 2.376702785650082], [-53.554839240113544, 2.334896551925951], [-53.41846513529531, 2.053389187015981], [-52.939657151894956, 2.124857692875636], [-52.55642473001842, 2.504705308437053], [-52.249337531123956, 3.241094468596245], [-51.65779741067889, 4.156232408053029], [-51.31714636901086, 4.203490505383954], [-51.069771287629656, 3.650397650564031], [-50.508875291533656, 1.901563828942457], [-49.97407589374506, 1.736483465986069], [-49.94710079608871, 1.046189683431223], [-50.699251268096916, 0.222984117021682], [-50.38821082213214, -0.078444512536819], [-48.62056677915632, -0.235489190271821], [-48.58449662941659, -1.237805271005001], [-47.824956427590635, -0.5816179337628], [-46.566583624851226, -0.941027520352776], [-44.905703090990414, -1.551739597178134], [-44.417619187993665, -2.137750339367976], [-44.58158850765578, -2.691308282078524], [-43.418791266440195, -2.383110039889793], [-41.47265682632825, -2.912018324397116], [-39.97866533055404, -2.873054294449041], [-38.50038347019657, -3.700652357603396], [-37.2232521225352, -4.820945733258917], [-36.45293738457639, -5.109403578312154], [-35.59779578301047, -5.149504489770649], [-35.23538896334756, -5.464937432480247], [-34.89602983248683, -6.738193047719711], [-34.729993455533034, -7.343220716992967], [-35.12821204277422, -8.996401462442286], [-35.636966518687714, -9.649281508017815], [-37.046518724097, -11.040721123908803], [-37.68361161960736, -12.171194756725823], [-38.42387651218844, -13.038118584854288], [-38.67388709161652, -13.057652276260619], [-38.953275722802545, -13.793369642800023], [-38.88229814304965, -15.667053724838768], [-39.16109249526431, -17.208406670808472], [-39.2673392400564, -17.867746270420483], [-39.58352149103423, -18.262295830968938], [-39.76082333022764, -19.59911345792741], [-40.77474077001034, -20.904511814052423], [-40.94475623225061, -21.93731698983781], [-41.754164191238225, -22.370675551037458], [-41.98828426773656, -22.970070489190896], [-43.07470374202475, -22.96769337330547], [-44.64781185563781, -23.351959323827842], [-45.35213578955992, -23.796841729428582], [-46.47209326840554, -24.088968601174543], [-47.64897233742066, -24.885199069927722], [-48.4954581365777, -25.877024834905654], [-48.64100480812774, -26.623697605090932], [-48.474735887228654, -27.17591196056189], [-48.661520351747626, -28.18613453543572], [-48.8884574041574, -28.674115085567884], [-49.587329474472675, -29.224469089476337], [-50.696874152211485, -30.98446502047296], [-51.576226162306156, -31.77769825615321], [-52.256081305538046, -32.24536996839467], [-52.712099982297694, -33.19657805759118], [-53.373661668498244, -33.768377780900764]]]}}, {"type": "Feature", "properties": {"name": "Peru"}, "geometry": {"type": "Polygon", "coordinates": [[[-69.89363521999663, -4.298186944194327], [-70.7947688463023, -4.251264743673303], [-70.92884334988358, -4.401591485210368], [-71.74840572781655, -4.593982842633011], [-72.89192765978726, -5.274561455916981], [-72.9645072089412, -5.741251315944893], [-73.21971126981461, -6.089188734566078], [-73.1200274319236, -6.629930922068239], [-73.72448666044164, -6.91859547285064], [-73.7234014553635, -7.340998630404414], [-73.98723548042966, -7.523829847853065], [-73.57105933296707, -8.424446709835834], [-73.01538265653255, -9.032833347208062], [-73.22671342639016, -9.462212823121234], [-72.56303300646564, -9.520193780152717], [-72.18489071316985, -10.053597914269432], [-71.30241227892154, -10.079436130415374], [-70.48189388699117, -9.490118096558845], [-70.54868567572841, -11.009146823778465], [-70.0937522040469, -11.123971856331012], [-69.52967810736496, -10.951734307502194], [-68.66507971868963, -12.561300144097173], [-68.88007951523997, -12.899729099176653], [-68.92922380234954, -13.602683607643009], [-68.9488866848366, -14.453639418193283], [-69.33953467474701, -14.953195489158832], [-69.16034664577495, -15.323973890853019], [-69.38976416693471, -15.660129082911652], [-68.9596353827533, -16.50069793057127], [-69.59042375352405, -17.580011895419332], [-69.85844356960587, -18.092693780187012], [-70.37257239447771, -18.34797535570887], [-71.37525021023693, -17.773798516513857], [-71.46204077827113, -17.363487644116383], [-73.44452958850042, -16.359362888252996], [-75.23788265654144, -15.265682875227782], [-76.00920508492995, -14.649286390850321], [-76.42346920439775, -13.823186944232432], [-76.25924150257417, -13.535039157772943], [-77.10619238962184, -12.22271615972082], [-78.09215287953464, -10.377712497604065], [-79.03695309112695, -8.386567884965892], [-79.44592037628485, -7.93083342858386], [-79.76057817251005, -7.194340915560084], [-80.53748165558608, -6.541667575713717], [-81.24999630402642, -6.136834405139183], [-80.92634680858244, -5.690556735866565], [-81.41094255239946, -4.736764825055459], [-81.09966956248937, -4.036394138203697], [-80.30256059438722, -3.404856459164713], [-80.18401485870967, -3.821161797708044], [-80.46929460317695, -4.059286797708999], [-80.44224199087216, -4.425724379090674], [-80.02890804718561, -4.346090996928893], [-79.62497921417618, -4.454198093283495], [-79.20528906931773, -4.959128513207389], [-78.63989722361234, -4.547784112164074], [-78.45068396677564, -3.873096612161376], [-77.83790483265861, -3.003020521663103], [-76.63539425322672, -2.608677666843818], [-75.54499569365204, -1.56160979574588], [-75.23372270374195, -0.911416924649529], [-75.37322323271385, -0.15203175212045], [-75.10662451852008, -0.05720549886486], [-74.44160051135597, -0.530820000819887], [-74.12239518908906, -1.002832533373848], [-73.6595035468346, -1.260491224781134], [-73.07039221870724, -2.308954359550953], [-72.32578650581365, -2.434218031426454], [-71.7747607082854, -2.169789727388938], [-71.41364579942979, -2.342802422702128], [-70.81347571479196, -2.256864515800743], [-70.04770850287485, -2.725156345229699], [-70.69268205430971, -3.742872002785859], [-70.39404395209499, -3.766591485207825], [-69.89363521999663, -4.298186944194327]]]}}, {"type": "Feature", "properties": {"name": "Colombia"}, "geometry": {"type": "Polygon", "coordinates": [[[-66.87632585312258, 1.253360500489336], [-67.0650481838525, 1.130112209473225], [-67.2599975246736, 1.719998684084956], [-67.5378100246747, 2.03716278727633], [-67.86856502955884, 1.692455145673392], [-69.81697323269162, 1.714805202639624], [-69.80459672715773, 1.089081122233466], [-69.21863766140018, 0.985676581217433], [-69.25243404811906, 0.602650865070075], [-69.45239600287246, 0.706158758950693], [-70.01556576198931, 0.541414292804205], [-70.02065589057005, -0.185156345219539], [-69.5770653957766, -0.549991957200163], [-69.42048580593223, -1.122618503426409], [-69.44410193548961, -1.556287123219818], [-69.89363521999663, -4.298186944194327], [-70.39404395209499, -3.766591485207825], [-70.69268205430971, -3.742872002785859], [-70.04770850287485, -2.725156345229699], [-70.81347571479196, -2.256864515800743], [-71.41364579942979, -2.342802422702128], [-71.7747607082854, -2.169789727388938], [-72.32578650581365, -2.434218031426454], [-73.07039221870724, -2.308954359550953], [-73.6595035468346, -1.260491224781134], [-74.12239518908906, -1.002832533373848], [-74.44160051135597, -0.530820000819887], [-75.10662451852008, -0.05720549886486], [-75.37322323271385, -0.15203175212045], [-75.8014658271166, 0.084801337073202], [-76.29231441924097, 0.416047268064119], [-76.5763797675494, 0.256935533037435], [-77.4249843004304, 0.395686753741117], [-77.66861284047044, 0.825893052570962], [-77.85506140817952, 0.809925034992773], [-78.85525875518871, 1.380923773601822], [-78.99093522817104, 1.691369940595251], [-78.61783138702371, 1.766404120283056], [-78.66211808949785, 2.267355454920477], [-78.42761043975733, 2.629555568854215], [-77.93154252797149, 2.696605739752926], [-77.51043128122501, 3.325016994638247], [-77.12768978545526, 3.849636135265357], [-77.49627193877703, 4.087606105969428], [-77.3076012844794, 4.667984117039452], [-77.53322058786573, 5.582811997902497], [-77.31881507028675, 5.84535411216136], [-77.47666073272228, 6.691116441266303], [-77.88157141794525, 7.223771267114785], [-77.7534138658614, 7.709839789252143], [-77.43110795765699, 7.638061224798734], [-77.24256649444008, 7.935278225125444], [-77.47472286651133, 8.524286200388218], [-77.35336076527386, 8.67050466555807], [-76.83667395700357, 8.638749497914716], [-76.08638383655786, 9.336820583529487], [-75.67460018584006, 9.443248195834599], [-75.66470414905618, 9.774003200718738], [-75.48042599150335, 10.618990383339309], [-74.90689510771199, 11.083044745320322], [-74.27675269234489, 11.102035834187587], [-74.1972226630477, 11.310472723836867], [-73.41476396350029, 11.22701528568548], [-72.62783525255963, 11.731971543825523], [-72.23819495307892, 11.955549628136326], [-71.75409013536864, 12.437303168177309], [-71.3998223537917, 12.376040757695293], [-71.13746110704588, 12.112981879113505], [-71.3315836249503, 11.776284084515808], [-71.97392167833829, 11.60867157637712], [-72.22757544624294, 11.10870209395324], [-72.61465776232521, 10.821975409381778], [-72.9052860175347, 10.450344346554772], [-73.02760413276957, 9.736770331252444], [-73.30495154488005, 9.151999823437606], [-72.7887298245004, 9.085027167187334], [-72.6604947577681, 8.625287787302682], [-72.43986223009796, 8.405275376820029], [-72.36090064155597, 8.002638454617895], [-72.47967892117885, 7.632506008327354], [-72.44448727078807, 7.423784898300482], [-72.19835242378188, 7.340430813013683], [-71.96017574734864, 6.991614895043539], [-70.67423356798152, 7.087784735538719], [-70.09331295437242, 6.96037649172311], [-69.38947994655712, 6.099860541198836], [-68.98531856960236, 6.206804917826858], [-68.26505245631823, 6.153268133972475], [-67.69508724635502, 6.267318020040647], [-67.34143958196557, 6.095468044454023], [-67.52153194850275, 5.556870428891969], [-67.74469662135522, 5.221128648291668], [-67.82301225449355, 4.503937282728899], [-67.62183590358129, 3.839481716319995], [-67.33756384954368, 3.542342230641722], [-67.30317318385345, 3.31845408773718], [-67.8099381171237, 2.820655015469569], [-67.44709204778631, 2.600280869960869], [-67.18129431829307, 2.250638129074062], [-66.87632585312258, 1.253360500489336]]]}}, {"type": "Feature", "properties": {"name": "Panama"}, "geometry": {"type": "Polygon", "coordinates": [[[-77.35336076527386, 8.67050466555807], [-77.47472286651133, 8.524286200388218], [-77.24256649444008, 7.935278225125444], [-77.43110795765699, 7.638061224798734], [-77.7534138658614, 7.709839789252143], [-77.88157141794525, 7.223771267114785], [-78.21493608266012, 7.512254950384161], [-78.42916073272607, 8.052041123888927], [-78.18209570993864, 8.319182440621773], [-78.4354652574657, 8.38770538984079], [-78.62212053090394, 8.718124497915028], [-79.12030717641375, 8.996092027213024], [-79.55787736684519, 8.932374986197146], [-79.76057817251005, 8.5845150822244], [-80.16448116730334, 8.333315944853595], [-80.38265906443962, 8.298408514840432], [-80.4806892564973, 8.09030752200107], [-80.00368994822716, 7.547524115423372], [-80.276670701809, 7.419754136581716], [-80.42115800649708, 7.271571966984765], [-80.8864009264208, 7.220541490096537], [-81.05954281281473, 7.817921047390597], [-81.18971574575795, 7.64790558515034], [-81.51951473664468, 7.706610012233909], [-81.72131120474447, 8.108962714058435], [-82.13144120962892, 8.175392767769637], [-82.39093441438257, 8.29236237226229], [-82.82008134635042, 8.290863755725823], [-82.85095801464482, 8.073822740099956], [-82.96578304719736, 8.225027980985985], [-82.91317643912421, 8.42351715741907], [-82.82977067740516, 8.62629547773237], [-82.86865719270477, 8.807266343618522], [-82.71918311230053, 8.925708726431495], [-82.92715491405916, 9.074330145702916], [-82.93289099804358, 9.476812038608173], [-82.54619625520348, 9.566134751824677], [-82.18712256542341, 9.20744863528678], [-82.20758643261097, 8.9955752628901], [-81.80856686066929, 8.950616766796173], [-81.71415401887204, 9.031955471223583], [-81.43928707551154, 8.786234035675719], [-80.94730160187676, 8.858503526235907], [-80.52190121125008, 9.111072089062432], [-79.91459977895599, 9.31276520429762], [-79.57330278188431, 9.611610012241528], [-79.02119177927793, 9.552931423374105], [-79.05845048696037, 9.454565334506526], [-78.50088762074719, 9.420458889193881], [-78.05592770049802, 9.2477304142583], [-77.72951351592641, 8.946844387238869], [-77.35336076527386, 8.67050466555807]]]}}, {"type": "Feature", "properties": {"name": "Venezuela"}, "geometry": {"type": "Polygon", "coordinates": [[[-60.73357418480372, 5.200277207861901], [-60.601179165271944, 4.91809804933213], [-60.96689327660154, 4.536467596856639], [-62.08542965355913, 4.162123521334308], [-62.804533047116706, 4.006965033377952], [-63.093197597899106, 3.770571193858785], [-63.88834286157416, 4.020530096854571], [-64.62865943058755, 4.14848094320925], [-64.81606401229402, 4.056445217297423], [-64.3684944322141, 3.797210394705246], [-64.40882788761792, 3.126786200366624], [-64.2699991522658, 2.497005520025567], [-63.42286739770512, 2.411067613124175], [-63.368788011311665, 2.200899562993129], [-64.08308549666609, 1.91636912679408], [-64.19930579289051, 1.49285492594602], [-64.61101192895987, 1.328730576987042], [-65.35471330428837, 1.0952822941085], [-65.54826738143757, 0.78925446207603], [-66.32576514348496, 0.724452215982012], [-66.87632585312258, 1.253360500489336], [-67.18129431829307, 2.250638129074062], [-67.44709204778631, 2.600280869960869], [-67.8099381171237, 2.820655015469569], [-67.30317318385345, 3.31845408773718], [-67.33756384954368, 3.542342230641722], [-67.62183590358129, 3.839481716319995], [-67.82301225449355, 4.503937282728899], [-67.74469662135522, 5.221128648291668], [-67.52153194850275, 5.556870428891969], [-67.34143958196557, 6.095468044454023], [-67.69508724635502, 6.267318020040647], [-68.26505245631823, 6.153268133972475], [-68.98531856960236, 6.206804917826858], [-69.38947994655712, 6.099860541198836], [-70.09331295437242, 6.96037649172311], [-70.67423356798152, 7.087784735538719], [-71.96017574734864, 6.991614895043539], [-72.19835242378188, 7.340430813013683], [-72.44448727078807, 7.423784898300482], [-72.47967892117885, 7.632506008327354], [-72.36090064155597, 8.002638454617895], [-72.43986223009796, 8.405275376820029], [-72.6604947577681, 8.625287787302682], [-72.7887298245004, 9.085027167187334], [-73.30495154488005, 9.151999823437606], [-73.02760413276957, 9.736770331252444], [-72.9052860175347, 10.450344346554772], [-72.61465776232521, 10.821975409381778], [-72.22757544624294, 11.10870209395324], [-71.97392167833829, 11.60867157637712], [-71.3315836249503, 11.776284084515808], [-71.36000566271082, 11.539993597861212], [-71.94704993354651, 11.423282375530022], [-71.62086829292019, 10.969459947142795], [-71.63306393094109, 10.446494452349029], [-72.07417395698451, 9.865651353388373], [-71.69564409044654, 9.072263088411248], [-71.26455929226773, 9.137194525585983], [-71.03999935574339, 9.859992784052409], [-71.35008378771079, 10.211935126176215], [-71.40062333849224, 10.968969021036015], [-70.15529883490652, 11.37548167566004], [-70.29384334988103, 11.846822414594214], [-69.94324459499683, 12.162307033736099], [-69.58430009629747, 11.459610907431212], [-68.88299923366445, 11.443384507691563], [-68.23327145045873, 10.885744126829946], [-68.19412655299763, 10.554653225135922], [-67.29624854192633, 10.54586823164631], [-66.227864142508, 10.648626817258688], [-65.65523759628175, 10.200798855017323], [-64.89045223657817, 10.0772146671913], [-64.32947872583374, 10.38959870039568], [-64.31800655786495, 10.64141795495398], [-63.07932247582873, 10.7017243514386], [-61.880946010980196, 10.715625311725104], [-62.73011898461641, 10.420268662960906], [-62.388511928950976, 9.94820445397464], [-61.58876746280194, 9.873066921422264], [-60.83059668643172, 9.381339829948942], [-60.67125240745973, 8.580174261911878], [-60.15009558779618, 8.602756862823426], [-59.758284878159195, 8.367034816924047], [-60.5505879380582, 7.779602972846178], [-60.637972785063766, 7.414999904810855], [-60.2956680975624, 7.043911444522919], [-60.54399919294099, 6.856584377464883], [-61.15933631045648, 6.696077378766319], [-61.13941504580795, 6.234296779806144], [-61.410302903881956, 5.959068101419618], [-60.73357418480372, 5.200277207861901]]]}}, {"type": "Feature", "properties": {"name": "Ecuador"}, "geometry": {"type": "Polygon", "coordinates": [[[-75.37322323271385, -0.15203175212045], [-75.23372270374195, -0.911416924649529], [-75.54499569365204, -1.56160979574588], [-76.63539425322672, -2.608677666843818], [-77.83790483265861, -3.003020521663103], [-78.45068396677564, -3.873096612161376], [-78.63989722361234, -4.547784112164074], [-79.20528906931773, -4.959128513207389], [-79.62497921417618, -4.454198093283495], [-80.02890804718561, -4.346090996928893], [-80.44224199087216, -4.425724379090674], [-80.46929460317695, -4.059286797708999], [-80.18401485870967, -3.821161797708044], [-80.30256059438722, -3.404856459164713], [-79.77029334178093, -2.65751189535964], [-79.98655921092242, -2.220794366061014], [-80.36878394236925, -2.685158786635788], [-80.96776546906436, -2.246942640800704], [-80.76480628123804, -1.965047702648533], [-80.93365902375172, -1.057454522306358], [-80.58337032746127, -0.906662692878683], [-80.39932471385376, -0.283703301600141], [-80.02089820018037, 0.360340074053468], [-80.09060970734211, 0.768428859862397], [-79.5427620103998, 0.982937730305963], [-78.85525875518871, 1.380923773601822], [-77.85506140817952, 0.809925034992773], [-77.66861284047044, 0.825893052570962], [-77.4249843004304, 0.395686753741117], [-76.5763797675494, 0.256935533037435], [-76.29231441924097, 0.416047268064119], [-75.8014658271166, 0.084801337073202], [-75.37322323271385, -0.15203175212045]]]}}], "source": "Natural Earth 1:110m Cultural Vectors, Admin 0 Countries (public domain, naturalearthdata.com), subset to the six countries the study-area locator draws"}